#aV2021  8 30  0  0  0.00000000     288 DD+AD WGS84 FIT  NGA
## 2173  86400.00000000   300.00000000 59456 0.0000000000000
+   32     1  2  3  4  5  6  7  8  9 10 11 12 13 14 15 16 17
+         18 19 20 21 22 23 24 25 26 27 28 29 30 31 32  0  0
+          0  0  0  0  0  0  0  0  0  0  0  0  0  0  0  0  0
+          0  0  0  0  0  0  0  0  0  0  0  0  0  0  0  0  0
+          0  0  0  0  0  0  0  0  0  0  0  0  0  0  0  0  0
++         2  2  2  2  2  2  2  2  2  2  2  2  2  2  2  2  2
++         2  2  2  2  2  2  2  2  2  2  2  2  2  2  2  0  0
++         0  0  0  0  0  0  0  0  0  0  0  0  0  0  0  0  0
++         0  0  0  0  0  0  0  0  0  0  0  0  0  0  0  0  0
++         0  0  0  0  0  0  0  0  0  0  0  0  0  0  0  0  0
%c cc cc ccc ccc cccc cccc cccc cccc ccccc ccccc ccccc ccccc
%c cc cc ccc ccc cccc cccc cccc cccc ccccc ccccc ccccc ccccc
%f  0.0000000  0.000000000  0.00000000000  0.000000000000000
%f  0.0000000  0.000000000  0.00000000000  0.000000000000000
%i    0    0    0    0      0      0      0      0         0
%i    0    0    0    0      0      0      0      0         0
/*      NGA, ST. LOUIS,MO.                                  
/*   EPHEMERIS COMPUTED FROM 2 DAYS OF DATA                 
/*   EPOCHA v7 SMOOTHER                                     
/*   G2139 IERS2010 SATIGS SATAPC                           
*  2021  8 30 12  5  0.00000000
P  1  18034.439676   7487.611607  17887.412241    582.387002                    
V  1  10619.669161  20523.253572 -18683.494467     -0.111926                    
P  2 -13797.756960 -22583.306302   2346.549143   -629.437346                    
V  2   3508.120825    227.566156  31688.937677     -0.022363                    
P  3  17119.086090  -2454.565108  20026.973872   -272.001538                    
V  3 -11647.102232  22886.780320  12799.142814     -0.130898                    
P  4  26588.144687    668.325487     93.608155   -204.231737                    
V  4   -175.044860   2755.248230  31716.963665     -0.001622                    
P  5 -11583.092954 -10647.470450 -21544.431524    -52.782991                    
V  5  12805.806427 -23780.521831   5066.960905     -0.012393                    
P  6  -3998.980619 -23104.127971  12476.589728     65.070204                    
V  6   9476.901102  12678.254063  26690.954796      0.068715                    
P  7  12669.961933  -8510.106354 -21354.997761    235.456647                    
V  7  14427.544698  24053.055707  -1493.985441      0.075252                    
P  8  23403.291029   6839.173618 -10913.179520    -34.585710                    
V  8 -13657.464938   2455.127665 -27475.668664     -0.014339                    
P  9  22925.957269  -8238.267856 -10678.408825   -360.025317                    
V  9  13536.067865   2219.689299  27493.451381     -0.008080                    
P 10 -11182.682061  23782.574358   2699.095887   -192.966249                    
V 10  -4000.656149   1553.649108 -31903.292717     -0.077715                    
P 11 -11269.975804 -24013.593327   1430.485671     39.477475                    
V 11   3356.057433    331.886699  31664.856760      0.028422                    
P 12 -17012.142345    886.555176  20092.232685    -90.215910                    
V 12  13492.264761 -22338.454681  12385.521000     -0.054063                    
P 13 -17121.580873 -13031.559613 -15809.523374    178.459060                    
V 13  19796.041712    746.875924 -22108.401100      0.052819                    
P 14  12096.062737 -23430.017680   2943.677708     12.314482                    
V 14   4527.047965  -1602.246008 -31381.827419     -0.083771                    
P 15 -24146.299544  -4909.751577 -10731.904318   -124.716599                    
V 15  12524.813668  -4599.922996 -26701.507333      0.027109                    
P 16   6318.433342  15645.264739 -20641.608843   -382.230934                    
V 16 -15452.535727  20616.836285  11474.222155     -0.063024                    
P 17  11749.482888 -13043.334240  20365.332661    497.190996                    
V 17  24777.874096   2019.610371 -13278.466962      0.057798                    
P 18 -10897.160122  10915.221393 -21626.197758    327.763899                    
V 18 -13861.364305 -23656.750273  -5044.485086     -0.039021                    
P 19   1798.816310 -14553.890304  21868.368556     46.355290                    
V 19  28241.614112   2788.848939   -611.262064      0.049834                    
P 20  -4414.792129 -20993.849131 -15854.070200    519.385900                    
V 20   9171.299050 -17945.801729  20988.214662     -0.001924                    
P 21  20044.289153  13345.604776  12472.718372    140.050143                    
V 21   6851.058691  12982.732000 -25862.860853      0.020565                    
P 22  14832.143836   5572.171528  21487.979369   -525.578486                    
V 22 -10566.858386  24822.011750   1067.456595      0.093542                    
P 23 -16681.521992  18721.481632  -8676.046827     64.023903                    
V 23   2917.588212 -10896.977361 -29270.429702     -0.049778                    
P 24 -19965.828019 -10771.013906  13872.803523    222.451230                    
V 24  -8145.535065 -16209.308427 -23462.296343      0.098572                    
P 25 -18356.892304  12049.503218  14483.902865    199.878715                    
V 25   7170.597490 -17714.274015  23664.035199      0.063931                    
P 26  -1674.496865  23356.213623 -12322.930221    128.543335                    
V 26  -9753.558952  12680.607052  25754.033333      0.043155                    
P 27  15304.945908  12214.855775 -18293.695290   -185.786598                    
V 27 -22676.154830   1335.366744 -17902.343815     -0.054591                    
P 28   8114.957569 -23596.142203   9923.219398    510.479789                    
V 28   8288.598884  -8536.402030 -28481.803327     -0.070002                    
P 29 -24696.092174   4381.717604  -8880.562159   -404.095177                    
V 29 -11029.501349  -2549.882040  29503.014989     -0.057527                    
P 30   3972.089115 -19342.559211 -17581.963292   -467.693224                    
V 30  12994.461810  18659.965165 -17758.854353     -0.039855                    
P 31   4880.993142  23682.823176  10335.946438   -137.070001                    
V 31  -9184.049574 -10251.768955  28039.358898     -0.020337                    
P 32  -7522.444404  14784.159642  20822.088149      3.770350                    
V 32 -26238.936535   -436.764279  -9392.482116     -0.030696                    
EOF
